{
  "type": "FeatureCollection",
  "features": [
    {
      "type": "Feature",
      "properties": {
        "norad_id": 42989,
        "name": "SKYSAT-C9",
        "group": "resource",
        "lat": -29.242900185315584,
        "lon": -61.22537218568764,
        "alt_km": 468.95182611407836,
        "timestamp": "2025-12-18T15:47:10.877961+00:00",
        "meta_object_name": "SKYSAT-C9",
        "meta_object_id": "2017-068C",
        "meta_epoch": "2025-12-18T07:03:42.551136",
        "meta_mean_motion": 15.36190512,
        "meta_eccentricity": 0.00105702,
        "meta_inclination": 97.419,
        "meta_ra_of_asc_node": 122.5919,
        "meta_arg_of_pericenter": 69.9784,
        "meta_mean_anomaly": 290.2597,
        "meta_ephemeris_type": 0,
        "meta_classification_type": "U",
        "meta_norad_cat_id": 42989,
        "meta_element_set_no": 999,
        "meta_rev_at_epoch": 45493,
        "meta_bstar": 0.00034468923,
        "meta_mean_motion_dot": 0.00012101,
        "meta_mean_motion_ddot": 0,
        "tle_line1": "1 42989U 17068C   25352.29424249  .00012101  00000+0  34469-3 0  9990",
        "tle_line2": "2 42989  97.4190 122.5919 0010570  69.9784 290.2597 15.36190512454931"
      },
      "geometry": {
        "type": "Point",
        "coordinates": [
          -61.22537218568764,
          -29.242900185315584
        ]
      }
    },
    {
      "type": "Feature",
      "properties": {
        "norad_id": 42990,
        "name": "SKYSAT-C8",
        "group": "resource",
        "lat": 65.51094000165956,
        "lon": -40.67203606279038,
        "alt_km": 461.0995742399382,
        "timestamp": "2025-12-18T15:47:10.877971+00:00",
        "meta_object_name": "SKYSAT-C8",
        "meta_object_id": "2017-068D",
        "meta_epoch": "2025-12-18T04:19:40.626912",
        "meta_mean_motion": 15.33039437,
        "meta_eccentricity": 0.00011978,
        "meta_inclination": 97.428,
        "meta_ra_of_asc_node": 122.2043,
        "meta_arg_of_pericenter": 320.7312,
        "meta_mean_anomaly": 39.3843,
        "meta_ephemeris_type": 0,
        "meta_classification_type": "U",
        "meta_norad_cat_id": 42990,
        "meta_element_set_no": 999,
        "meta_rev_at_epoch": 45454,
        "meta_bstar": 0.00033004437,
        "meta_mean_motion_dot": 0.00010458,
        "meta_mean_motion_ddot": 0,
        "tle_line1": "1 42990U 17068D   25352.18033133  .00010458  00000+0  33004-3 0  9995",
        "tle_line2": "2 42990  97.4280 122.2043 0001197 320.7312  39.3843 15.33039437454546"
      },
      "geometry": {
        "type": "Point",
        "coordinates": [
          -40.67203606279038,
          65.51094000165956
        ]
      }
    },
    {
      "type": "Feature",
      "properties": {
        "norad_id": 42991,
        "name": "SKYSAT-C7",
        "group": "resource",
        "lat": -43.64013565014116,
        "lon": 130.86748505096767,
        "alt_km": 474.5909197898618,
        "timestamp": "2025-12-18T15:47:10.877981+00:00",
        "meta_object_name": "SKYSAT-C7",
        "meta_object_id": "2017-068E",
        "meta_epoch": "2025-12-17T21:10:21.597024",
        "meta_mean_motion": 15.32433807,
        "meta_eccentricity": 0.00073248,
        "meta_inclination": 97.4288,
        "meta_ra_of_asc_node": 122.9414,
        "meta_arg_of_pericenter": 41.2137,
        "meta_mean_anomaly": 318.9657,
        "meta_ephemeris_type": 0,
        "meta_classification_type": "U",
        "meta_norad_cat_id": 42991,
        "meta_element_set_no": 999,
        "meta_rev_at_epoch": 45456,
        "meta_bstar": 0.00028855662,
        "meta_mean_motion_dot": 8.966e-05,
        "meta_mean_motion_ddot": 0,
        "tle_line1": "1 42991U 17068E   25351.88219441  .00008966  00000+0  28856-3 0  9990",
        "tle_line2": "2 42991  97.4288 122.9414 0007324  41.2137 318.9657 15.32433807454561"
      },
      "geometry": {
        "type": "Point",
        "coordinates": [
          130.86748505096767,
          -43.64013565014116
        ]
      }
    },
    {
      "type": "Feature",
      "properties": {
        "norad_id": 42992,
        "name": "SKYSAT-C6",
        "group": "resource",
        "lat": 54.3898573731384,
        "lon": 113.65193711943861,
        "alt_km": 462.50263889450525,
        "timestamp": "2025-12-18T15:47:10.877991+00:00",
        "meta_object_name": "SKYSAT-C6",
        "meta_object_id": "2017-068F",
        "meta_epoch": "2025-12-18T04:34:15.430368",
        "meta_mean_motion": 15.31600046,
        "meta_eccentricity": 0.00050692,
        "meta_inclination": 97.4321,
        "meta_ra_of_asc_node": 123.6852,
        "meta_arg_of_pericenter": 67.7962,
        "meta_mean_anomaly": 292.3817,
        "meta_ephemeris_type": 0,
        "meta_classification_type": "U",
        "meta_norad_cat_id": 42992,
        "meta_element_set_no": 999,
        "meta_rev_at_epoch": 45459,
        "meta_bstar": 0.00032153489,
        "meta_mean_motion_dot": 9.739e-05,
        "meta_mean_motion_ddot": 0,
        "tle_line1": "1 42992U 17068F   25352.19045637  .00009739  00000+0  32153-3 0  9994",
        "tle_line2": "2 42992  97.4321 123.6852 0005069  67.7962 292.3817 15.31600046454593"
      },
      "geometry": {
        "type": "Point",
        "coordinates": [
          113.65193711943861,
          54.3898573731384
        ]
      }
    },
    {
      "type": "Feature",
      "properties": {
        "norad_id": 43111,
        "name": "CARTOSAT-2F",
        "group": "resource",
        "lat": -78.43581419498636,
        "lon": -169.4378567982973,
        "alt_km": 515.7764885276993,
        "timestamp": "2025-12-18T15:47:10.878001+00:00",
        "meta_object_name": "CARTOSAT-2F",
        "meta_object_id": "2018-004A",
        "meta_epoch": "2025-12-18T06:44:14.474976",
        "meta_mean_motion": 15.1933089,
        "meta_eccentricity": 0.00014463,
        "meta_inclination": 97.4319,
        "meta_ra_of_asc_node": 49.8294,
        "meta_arg_of_pericenter": 137.6942,
        "meta_mean_anomaly": 222.4404,
        "meta_ephemeris_type": 0,
        "meta_classification_type": "U",
        "meta_norad_cat_id": 43111,
        "meta_element_set_no": 999,
        "meta_rev_at_epoch": 43986,
        "meta_bstar": 0.00019521269,
        "meta_mean_motion_dot": 4.056e-05,
        "meta_mean_motion_ddot": 0,
        "tle_line1": "1 43111U 18004A   25352.28072309  .00004056  00000+0  19521-3 0  9996",
        "tle_line2": "2 43111  97.4319  49.8294 0001446 137.6942 222.4404 15.19330890439865"
      },
      "geometry": {
        "type": "Point",
        "coordinates": [
          -169.4378567982973,
          -78.43581419498636
        ]
      }
    },
    {
      "type": "Feature",
      "properties": {
        "norad_id": 43259,
        "name": "GAOFEN-1 02",
        "group": "resource",
        "lat": -15.451265407573992,
        "lon": -131.80100972670672,
        "alt_km": 643.9250342420819,
        "timestamp": "2025-12-18T15:47:10.878011+00:00",
        "meta_object_name": "GAOFEN-1 02",
        "meta_object_id": "2018-031A",
        "meta_epoch": "2025-12-18T06:46:15.550752",
        "meta_mean_motion": 14.76428112,
        "meta_eccentricity": 0.0002103,
        "meta_inclination": 98.0806,
        "meta_ra_of_asc_node": 50.0738,
        "meta_arg_of_pericenter": 195.9186,
        "meta_mean_anomaly": 164.1957,
        "meta_ephemeris_type": 0,
        "meta_classification_type": "U",
        "meta_norad_cat_id": 43259,
        "meta_element_set_no": 999,
        "meta_rev_at_epoch": 41600,
        "meta_bstar": 0.00015505706,
        "meta_mean_motion_dot": 1.026e-05,
        "meta_mean_motion_ddot": 0,
        "tle_line1": "1 43259U 18031A   25352.28212443  .00001026  00000+0  15506-3 0  9997",
        "tle_line2": "2 43259  98.0806  50.0738 0002103 195.9186 164.1957 14.76428112416004"
      },
      "geometry": {
        "type": "Point",
        "coordinates": [
          -131.80100972670672,
          -15.451265407573992
        ]
      }
    },
    {
      "type": "Feature",
      "properties": {
        "norad_id": 43260,
        "name": "GAOFEN-1 03",
        "group": "resource",
        "lat": -48.30864556340656,
        "lon": 59.50194702880196,
        "alt_km": 646.2435425787189,
        "timestamp": "2025-12-18T15:47:10.878033+00:00",
        "meta_object_name": "GAOFEN-1 03",
        "meta_object_id": "2018-031B",
        "meta_epoch": "2025-12-18T07:52:30.481248",
        "meta_mean_motion": 14.76448348,
        "meta_eccentricity": 0.00017527,
        "meta_inclination": 98.0792,
        "meta_ra_of_asc_node": 49.9957,
        "meta_arg_of_pericenter": 293.5505,
        "meta_mean_anomaly": 66.552,
        "meta_ephemeris_type": 0,
        "meta_classification_type": "U",
        "meta_norad_cat_id": 43260,
        "meta_element_set_no": 999,
        "meta_rev_at_epoch": 41600,
        "meta_bstar": 0.00011597342,
        "meta_mean_motion_dot": 7.55e-06,
        "meta_mean_motion_ddot": 0,
        "tle_line1": "1 43260U 18031B   25352.32813057  .00000755  00000+0  11597-3 0  9996",
        "tle_line2": "2 43260  98.0792  49.9957 0001752 293.5505  66.5520 14.76448348416003"
      },
      "geometry": {
        "type": "Point",
        "coordinates": [
          59.50194702880196,
          -48.30864556340656
        ]
      }
    }
  ]
}